NORAD_CAT_ID,OBJECT_NAME,OBJECT_TYPE,EPOCH,MEAN_MOTION,ECCENTRICITY,INCLINATION,RA_OF_ASC_NODE,ARG_OF_PERICENTER,MEAN_ANOMALY,BSTAR,MEAN_MOTION_DOT,MEAN_MOTION_DDOT,TLE_LINE0,TLE_LINE1,TLE_LINE2,SEMIMAJOR_AXIS,PERIOD,APOGEE,PERIGEE,DECAYED
51984.0,STARLINK-3664,PAYLOAD,2023-03-09 02:28:14,15.08868716,9.31e-05,53.2129,281.8939,83.2844,276.8254,0.0030651,0.0004887,0.0,0 STARLINK-3664,1 51984U 22025AE  23068.10294370  .00048870  00000-0  30651-2 0  9997,2 51984  53.2129 281.8939 0000931  83.2844 276.8254 15.08868716 56615,6917.793,95.436,540.302,539.014,0.0
51984.0,STARLINK-3664,PAYLOAD,2023-03-09 19:57:28,15.08863494,0.0001021,53.2124,278.6222,84.4876,275.6233,0.0021091,0.0003346,0.0,0 STARLINK-3664,1 51984U 22025AE  23068.83158464  .00033460  00000-0  21091-2 0  9997,2 51984  53.2124 278.6222 0001021  84.4876 275.6233 15.08863494 56722,6917.809,95.436,540.38,538.967,0.0
51984.0,STARLINK-3664,PAYLOAD,2023-03-09 21:32:52,15.08865524,0.0001016,53.2125,278.325,79.146,280.9647,0.0021209,0.00033651,0.0,0 STARLINK-3664,1 51984U 22025AE  23068.89782410  .00033651  00000-0  21209-2 0  9990,2 51984  53.2125 278.3250 0001016  79.1460 280.9647 15.08865524 55638,6917.802,95.436,540.37,538.965,0.0
51984.0,STARLINK-3664,PAYLOAD,2023-03-10 03:54:24,15.08837973,0.0001587,53.2124,277.1352,62.1933,297.922,-0.00013145,-2.379e-05,0.0,0 STARLINK-3664,1 51984U 22025AE  23069.16278617 -.00002379  00000-0 -13145-3 0  9996,2 51984  53.2124 277.1352 0001587  62.1933 297.9220 15.08837973 56775,6917.887,95.438,540.849,538.654,0.0
51984.0,STARLINK-3664,PAYLOAD,2023-03-10 19:48:16,15.08847251,0.0001024,53.2125,274.1613,96.7037,263.4072,0.0014314,0.00022571,0.0,0 STARLINK-3664,1 51984U 22025AE  23069.82518533  .00022571  00000-0  14314-2 0  9995,2 51984  53.2125 274.1613 0001024  96.7037 263.4072 15.08847251 55779,6917.858,95.437,540.432,539.015,0.0
51984.0,STARLINK-3664,PAYLOAD,2023-03-11 00:34:25,15.08857668,0.0001063,53.2127,273.2687,93.63,266.4814,0.0019906,0.0003155,0.0,0 STARLINK-3664,1 51984U 22025AE  23070.02390441  .00031550  00000-0  19906-2 0  9994,2 51984  53.2127 273.2687 0001063  93.6300 266.4814 15.08857668 56900,6917.826,95.436,540.427,538.956,0.0
51984.0,STARLINK-3664,PAYLOAD,2023-03-11 13:17:30,15.08845849,0.0001179,53.2128,270.8889,100.406,259.7065,0.0010874,0.00017063,0.0,0 STARLINK-3664,1 51984U 22025AE  23070.55382831  .00017063  00000-0  10874-2 0  9994,2 51984  53.2128 270.8889 0001179 100.4060 259.7065 15.08845849 55883,6917.863,95.437,540.543,538.912,0.0
51984.0,STARLINK-3664,PAYLOAD,2023-03-11 16:28:17,15.08847473,0.0001224,53.2131,270.2948,87.1948,272.9184,0.0012088,0.00019006,0.0,0 STARLINK-3664,1 51984U 22025AE  23070.68630905  .00019006  00000-0  12088-2 0  9994,2 51984  53.2131 270.2948 0001224  87.1948 272.9184 15.08847473 57004,6917.858,95.437,540.569,538.876,0.0
51984.0,STARLINK-3664,PAYLOAD,2023-03-11 19:39:03,15.08849224,0.0001026,53.2132,269.7004,68.8892,291.221,0.001453,0.00022918,0.0,0 STARLINK-3664,1 51984U 22025AE  23070.81878918  .00022918  00000-0  14530-2 0  9997,2 51984  53.2132 269.7004 0001026  68.8892 291.2210 15.08849224 55924,6917.852,95.437,540.427,539.007,0.0
51984.0,STARLINK-3664,PAYLOAD,2023-03-12 16:19:04,15.08855403,0.000182,53.2138,265.8341,49.9008,310.2143,0.0014305,0.00022561,0.0,0 STARLINK-3664,1 51984U 22025AE  23071.67991395  .00022561  00000-0  14305-2 0  9991,2 51984  53.2138 265.8341 0001820  49.9008 310.2143 15.08855403 57152,6917.833,95.437,540.957,538.439,0.0
51984.0,STARLINK-3664,PAYLOAD,2023-03-12 19:29:50,15.08852521,0.0001097,53.2141,265.239,75.6648,284.4466,0.00095221,0.00014904,0.0,0 STARLINK-3664,1 51984U 22025AE  23071.81239010  .00014904  00000-0  95221-3 0  9995,2 51984  53.2141 265.2390 0001097  75.6648 284.4466 15.08852521 57176,6917.842,95.437,540.466,538.948,0.0
51984.0,STARLINK-3664,PAYLOAD,2023-03-13 12:59:05,15.08842729,0.0001187,53.2133,261.9695,64.2951,295.8163,0.00029313,4.381e-05,0.0,0 STARLINK-3664,1 51984U 22025AE  23072.54103216  .00004381  00000-0  29313-3 0  9991,2 51984  53.2133 261.9695 0001187  64.2951 295.8163 15.08842729 56188,6917.872,95.437,540.558,538.916,0.0
51984.0,STARLINK-3664,PAYLOAD,2023-03-13 16:09:51,15.0884021,0.0001224,53.2139,261.3727,71.591,288.5215,0.00014839,2.075e-05,0.0,0 STARLINK-3664,1 51984U 22025AE  23072.67351224  .00002075  00000-0  14839-3 0  9994,2 51984  53.2139 261.3727 0001224  71.5910 288.5215 15.08840210 57307,6917.88,95.438,540.591,538.898,0.0
51984.0,STARLINK-3664,PAYLOAD,2023-03-14 11:14:29,15.08839709,0.0001241,53.2139,257.8034,76.3251,283.7879,0.00034898,5.27e-05,0.0,0 STARLINK-3664,1 51984U 22025AE  23073.46839344  .00005270  00000-0  34898-3 0  9993,2 51984  53.2139 257.8034 0001241  76.3251 283.7879 15.08839709 56323,6917.881,95.438,540.605,538.888,0.0
51984.0,STARLINK-3664,PAYLOAD,2023-03-14 19:11:24,15.08854421,0.0001013,53.2125,256.3188,88.8402,271.2706,0.00012877,1.763e-05,0.0,0 STARLINK-3664,1 51984U 22025AE  23073.79958397  .00001763  00000-0  12877-3 0  9995,2 51984  53.2125 256.3188 0001013  88.8402 271.2706 15.08854421 57471,6917.836,95.437,540.402,539.001,0.0
51984.0,STARLINK-3664,PAYLOAD,2023-03-15 11:05:15,15.08842868,0.0001313,53.2126,253.3445,84.0227,276.0915,5.1677e-05,5.35e-06,0.0,0 STARLINK-3664,1 51984U 22025AE  23074.46198661  .00000535  00000-0  51677-4 0  9998,2 51984  53.2126 253.3445 0001313  84.0227 276.0915 15.08842868 57579,6917.872,95.437,540.645,538.828,0.0
51984.0,STARLINK-3664,PAYLOAD,2023-03-15 12:40:38,15.08844652,0.0001273,53.213,253.0467,85.8079,274.3058,7.5685e-05,9.17e-06,0.0,0 STARLINK-3664,1 51984U 22025AE  23074.52822553  .00000917  00000-0  75685-4 0  9998,2 51984  53.2130 253.0467 0001273  85.8079 274.3058 15.08844652 56485,6917.866,95.437,540.612,538.851,0.0
51984.0,STARLINK-3664,PAYLOAD,2023-03-15 19:02:10,15.08856154,0.0001224,53.2129,251.8577,88.9545,271.1587,0.00036203,5.481e-05,0.0,0 STARLINK-3664,1 51984U 22025AE  23074.79318084  .00005481  00000-0  36203-3 0  9999,2 51984  53.2129 251.8577 0001224  88.9545 271.1587 15.08856154 57628,6917.831,95.437,540.543,538.849,0.0
51984.0,STARLINK-3664,PAYLOAD,2023-03-16 10:56:02,15.08821347,0.0001027,53.2128,248.882,92.9443,267.1666,-0.0003424,-5.73e-05,0.0,0 STARLINK-3664,1 51984U 22025AE  23075.45558914 -.00005730  00000-0 -34240-3 0  9999,2 51984  53.2128 248.8820 0001027  92.9443 267.1666 15.08821347 57727,6917.937,95.439,540.513,539.092,0.0
51984.0,STARLINK-3664,PAYLOAD,2023-03-16 20:28:21,15.08830819,0.0001227,53.213,247.0983,99.0697,261.0434,0.00031769,4.771e-05,0.0,0 STARLINK-3664,1 51984U 22025AE  23075.85303221  .00004771  00000-0  31769-3 0  9997,2 51984  53.2130 247.0983 0001227  99.0697 261.0434 15.08830819 56686,6917.908,95.438,540.622,538.925,0.0
51984.0,STARLINK-3664,PAYLOAD,2023-03-16 22:03:45,15.08838306,0.0001151,53.2144,246.8012,86.8948,273.2176,0.00064253,9.952e-05,0.0,0 STARLINK-3664,1 51984U 22025AE  23075.91927165  .00009952  00000-0  64253-3 0  9993,2 51984  53.2144 246.8012 0001151  86.8948 273.2176 15.08838306 57790,6917.886,95.438,540.547,538.954,0.0
51984.0,STARLINK-3664,PAYLOAD,2023-03-17 04:25:17,15.08832765,0.0001247,53.2145,245.6118,88.9156,271.1979,0.00050742,7.795e-05,0.0,0 STARLINK-3664,1 51984U 22025AE  23076.18423477  .00007795  00000-0  50742-3 0  9991,2 51984  53.2145 245.6118 0001247  88.9156 271.1979 15.08832765 57831,6917.903,95.438,540.63,538.905,0.0
51984.0,STARLINK-3664,PAYLOAD,2023-03-17 12:22:13,15.08841584,0.000117,53.2141,244.125,90.0019,270.1107,0.00064599,0.00010008,0.0,0 STARLINK-3664,1 51984U 22025AE  23076.51543438  .00010008  00000-0  64599-3 0  9994,2 51984  53.2141 244.1250 0001170  90.0019 270.1107 15.08841584 56789,6917.876,95.437,540.55,538.931,0.0
51984.0,STARLINK-3664,PAYLOAD,2023-03-17 20:19:08,15.08859785,0.0001194,53.2127,242.6381,93.3382,266.7746,0.0010723,0.00016828,0.0,0 STARLINK-3664,1 51984U 22025AE  23076.84663033  .00016828  00000-0  10723-2 0  9999,2 51984  53.2127 242.6381 0001194  93.3382 266.7746 15.08859785 57936,6917.82,95.436,540.511,538.859,0.0
51984.0,STARLINK-3664,PAYLOAD,2023-03-18 10:37:37,15.08847489,0.0001172,53.2119,239.9615,87.0435,273.0691,0.00031663,4.756e-05,0.0,0 STARLINK-3664,1 51984U 22025AE  23077.44279113  .00004756  00000-0  31663-3 0  9992,2 51984  53.2119 239.9615 0001172  87.0435 273.0691 15.08847489 58020,6917.857,95.437,540.533,538.912,0.0
51984.0,STARLINK-3664,PAYLOAD,2023-03-18 16:59:09,15.08854157,0.0001195,53.2128,238.773,75.8622,284.2503,0.0014649,0.00023112,0.0,0 STARLINK-3664,1 51984U 22025AE  23077.70775044  .00023112  00000-0  14649-2 0  9996,2 51984  53.2128 238.7730 0001195  75.8622 284.2503 15.08854157 56960,6917.837,95.437,540.529,538.875,0.0
51984.0,STARLINK-3664,PAYLOAD,2023-03-19 13:39:10,15.08848851,0.0001279,53.2132,234.9068,77.9166,282.197,0.00056,8.638e-05,0.0,0 STARLINK-3664,1 51984U 22025AE  23078.56887000  .00008638  00000-0  56000-3 0  9991,2 51984  53.2132 234.9068 0001279  77.9166 282.1970 15.08848851 57090,6917.853,95.437,540.603,538.834,0.0
51984.0,STARLINK-3664,PAYLOAD,2023-03-19 20:00:42,15.08852454,0.0001336,53.2145,233.7175,79.5216,280.5926,0.0014871,0.00023467,0.0,0 STARLINK-3664,1 51984U 22025AE  23078.83383006  .00023467  00000-0  14871-2 0  9994,2 51984  53.2145 233.7175 0001336  79.5216 280.5926 15.08852454 58232,6917.842,95.437,540.632,538.783,0.0
51984.0,STARLINK-3664,PAYLOAD,2023-03-20 13:29:57,15.0884953,0.0001105,53.2144,230.4463,86.9872,273.1247,0.0012205,0.00019195,0.0,0 STARLINK-3664,1 51984U 22025AE  23079.56247202  .00019195  00000-0  12205-2 0  9994,2 51984  53.2144 230.4463 0001105  86.9872 273.1247 15.08849530 57244,6917.851,95.437,540.481,538.952,0.0
51984.0,STARLINK-3664,PAYLOAD,2023-03-20 16:40:43,15.08852456,0.0001123,53.2143,229.8509,83.8739,276.2381,0.00074262,0.00011555,0.0,0 STARLINK-3664,1 51984U 22025AE  23079.69495016  .00011555  00000-0  74262-3 0  9990,2 51984  53.2143 229.8509 0001123  83.8739 276.2381 15.08852456 58362,6917.842,95.437,540.484,538.93,0.0
